1  8820U 76039A   04065.55977395 +.00000040 +00000-0 +10000-3 0  9996
2  8820 109.8416 271.4554 0044179 245.3091 114.3109 06.38664679393814
1  8820U 76039A   04066.49932139 +.00000038 +00000-0 +10000-3 0  9994
2  8820 109.8416 271.7771 0044184 245.1112 114.5091 06.38664686393872
1  8820U 76039A   04067.59545993 +.00000035 +00000-0 +10000-3 0  9991
2  8820 109.8420 272.1529 0044182 244.8820 114.7379 06.38664669393943
1  8820U 76039A   04068.84818946 +.00000032 +00000-0 +10000-3 0  9998
2  8820 109.8420 272.5818 0044181 244.6045 115.0142 06.38664635394029
1  8820U 76039A   04069.63114573 +.00000030 +00000-0 +10000-3 0  9999
2  8820 109.8416 272.8496 0044176 244.4194 115.1987 06.38664615394077
1  8820U 76039A   04070.72728396 +.00000029 +00000-0 +10000-3 0  9993
2  8820 109.8416 273.2245 0044186 244.1903 115.4268 06.38664623394142
1  8820U 76039A   04071.51023971 +.00000029 +00000-0 +10000-3 0  9998
2  8820 109.8418 273.4928 0044186 244.0294 115.5871 06.38664624394193
1  8820U 76039A   04072.76296982 +.00000032 +00000-0 +10000-3 0  9994
2  8820 109.8419 273.9219 0044191 243.7505 115.8667 06.38664631394272
1  8820U 76039A   04073.85910916 +.00000035 +00000-0 +10000-3 0  9998
2  8820 109.8420 274.2974 0044181 243.5214 116.0971 06.38664627394344
1  8820U 76039A   04074.64206605 +.00000037 +00000-0 +10000-3 0  9991
2  8820 109.8421 274.5655 0044171 243.3782 116.2410 06.38664610394398
1  8820U 76039A   04075.89479719 +.00000040 +00000-0 +10000-3 0  9991
2  8820 109.8424 274.9948 0044144 243.1087 116.5132 06.38664605394473
1  8820U 76039A   04076.52116303 +.00000040 +00000-0 +10000-3 0  9999
2  8820 109.8425 275.2093 0044160 242.9392 116.6836 06.38664576394517
1  8820U 76039A   04077.61730231 +.00000039 +00000-0 +10000-3 0  9990
2  8820 109.8426 275.5846 0044151 242.7204 116.9035 06.38664580394583
1  8820U 76039A   04078.55684983 +.00000036 +00000-0 +10000-3 0  9993
2  8820 109.8429 275.9065 0044152 242.5711 117.0532 06.38664535394646
1  8820U 76039A   04079.49639730 +.00000031 +00000-0 +10000-3 0  9992
2  8820 109.8431 276.2286 0044154 242.3598 117.2646 06.38664540394702
1 08820U 76039A   04070.57069296  .00000029  00000-0  10000-3 0  9993
2 08820 109.8416 273.1709 0044186 244.2248 115.3930 06.38664623394133
1 08820U 76039A   04075.73820552  .00000040  00000-0  10000-3 0  9999
2 08820 109.8424 274.9412 0044144 243.1443 116.4766 06.38664605394466